[{"OBJECT_NAME":"STARLINK-2648","OBJECT_ID":"2021-044AT","EPOCH":"2026-03-09T12:42:20.171232","MEAN_MOTION":15.06406221,"ECCENTRICITY":0.00014086,"INCLINATION":53.0552,"RA_OF_ASC_NODE":112.3376,"ARG_OF_PERICENTER":85.3329,"MEAN_ANOMALY":274.7821,"EPHEMERIS_TYPE":0,"CLASSIFICATION_TYPE":"U","NORAD_CAT_ID":48679,"ELEMENT_SET_NO":999,"REV_AT_EPOCH":26382,"BSTAR":0.00015683493,"MEAN_MOTION_DOT":2.056e-5,"MEAN_MOTION_DDOT":0},{"OBJECT_NAME":"TITAN 3C TRANSTAGE DEB","OBJECT_ID":"1965-082EA","EPOCH":"2026-03-09T23:10:17.723424","MEAN_MOTION":15.08375165,"ECCENTRICITY":0.00122709,"INCLINATION":32.3951,"RA_OF_ASC_NODE":291.2548,"ARG_OF_PERICENTER":351.0252,"MEAN_ANOMALY":9.0191,"EPHEMERIS_TYPE":0,"CLASSIFICATION_TYPE":"U","NORAD_CAT_ID":1835,"ELEMENT_SET_NO":999,"REV_AT_EPOCH":23237,"BSTAR":0.00035954995,"MEAN_MOTION_DOT":5.778e-5,"MEAN_MOTION_DDOT":0}]
